{
  "type": "FeatureCollection",
  "features": [
    {
      "type": "Feature",
      "properties": {
        "norad_id": 40688,
        "name": "FENGYUN 1C DEB",
        "group": "fengyun-1c-debris",
        "lat": -9.975197106825805,
        "lon": -37.181518166128164,
        "alt_km": 1058.5043409887649,
        "timestamp": "2025-12-21T05:44:51.876209+00:00",
        "meta_object_name": "FENGYUN 1C DEB",
        "meta_object_id": "1999-025EWU",
        "meta_epoch": "2025-12-20T14:57:06.316128",
        "meta_mean_motion": 13.83835528,
        "meta_eccentricity": 0.0142102,
        "meta_inclination": 98.9699,
        "meta_ra_of_asc_node": 143.8219,
        "meta_arg_of_pericenter": 10.2902,
        "meta_mean_anomaly": 350.111,
        "meta_ephemeris_type": 0,
        "meta_classification_type": "U",
        "meta_norad_cat_id": 40688,
        "meta_element_set_no": 999,
        "meta_rev_at_epoch": 30026,
        "meta_bstar": 0.00029461,
        "meta_mean_motion_dot": 3.11e-06,
        "meta_mean_motion_ddot": 0,
        "tle_line1": "1 40688U 99025EWU 25354.62298977  .00000311  00000+0  29461-3 0  9999",
        "tle_line2": "2 40688  98.9699 143.8219 0142102  10.2902 350.1110 13.83835528300268"
      },
      "geometry": {
        "type": "Point",
        "coordinates": [
          -37.181518166128164,
          -9.975197106825805
        ]
      }
    },
    {
      "type": "Feature",
      "properties": {
        "norad_id": 40689,
        "name": "FENGYUN 1C DEB",
        "group": "fengyun-1c-debris",
        "lat": 54.16147771605342,
        "lon": -100.1533900061478,
        "alt_km": 802.2113805720946,
        "timestamp": "2025-12-21T05:44:51.876219+00:00",
        "meta_object_name": "FENGYUN 1C DEB",
        "meta_object_id": "1999-025EWV",
        "meta_epoch": "2025-12-15T14:00:17.692704",
        "meta_mean_motion": 13.64713186,
        "meta_eccentricity": 0.03107205,
        "meta_inclination": 99.1258,
        "meta_ra_of_asc_node": 267.381,
        "meta_arg_of_pericenter": 93.9269,
        "meta_mean_anomaly": 269.7453,
        "meta_ephemeris_type": 0,
        "meta_classification_type": "U",
        "meta_norad_cat_id": 40689,
        "meta_element_set_no": 999,
        "meta_rev_at_epoch": 54922,
        "meta_bstar": 0.0014500265,
        "meta_mean_motion_dot": 1.584e-05,
        "meta_mean_motion_ddot": 0,
        "tle_line1": "1 40689U 99025EWV 25349.58353811  .00001584  00000+0  14500-2 0  9998",
        "tle_line2": "2 40689  99.1258 267.3810 0310720  93.9269 269.7453 13.64713186549229"
      },
      "geometry": {
        "type": "Point",
        "coordinates": [
          -100.1533900061478,
          54.16147771605342
        ]
      }
    },
    {
      "type": "Feature",
      "properties": {
        "norad_id": 40691,
        "name": "FENGYUN 1C DEB",
        "group": "fengyun-1c-debris",
        "lat": -36.117010980675765,
        "lon": -159.40657007120336,
        "alt_km": 904.2208160059954,
        "timestamp": "2025-12-21T05:44:51.876232+00:00",
        "meta_object_name": "FENGYUN 1C DEB",
        "meta_object_id": "1999-025EWX",
        "meta_epoch": "2025-12-03T08:15:02.306016",
        "meta_mean_motion": 13.89944729,
        "meta_eccentricity": 0.0128434,
        "meta_inclination": 99.0573,
        "meta_ra_of_asc_node": 9.8547,
        "meta_arg_of_pericenter": 336.6089,
        "meta_mean_anomaly": 22.9259,
        "meta_ephemeris_type": 0,
        "meta_classification_type": "U",
        "meta_norad_cat_id": 40691,
        "meta_element_set_no": 999,
        "meta_rev_at_epoch": 55305,
        "meta_bstar": 0.00023937,
        "meta_mean_motion_dot": 2.71e-06,
        "meta_mean_motion_ddot": 0,
        "tle_line1": "1 40691U 99025EWX 25337.34377669  .00000271  00000+0  23937-3 0  9996",
        "tle_line2": "2 40691  99.0573   9.8547 0128434 336.6089  22.9259 13.89944729553058"
      },
      "geometry": {
        "type": "Point",
        "coordinates": [
          -159.40657007120336,
          -36.117010980675765
        ]
      }
    },
    {
      "type": "Feature",
      "properties": {
        "norad_id": 40695,
        "name": "FENGYUN 1C DEB",
        "group": "fengyun-1c-debris",
        "lat": -9.006105178264756,
        "lon": 115.99117225114419,
        "alt_km": 578.7527670401878,
        "timestamp": "2025-12-21T05:44:51.876243+00:00",
        "meta_object_name": "FENGYUN 1C DEB",
        "meta_object_id": "1999-025EXB",
        "meta_epoch": "2025-12-20T01:39:13.620960",
        "meta_mean_motion": 14.50978361,
        "meta_eccentricity": 0.0280485,
        "meta_inclination": 99.4265,
        "meta_ra_of_asc_node": 113.1701,
        "meta_arg_of_pericenter": 311.2419,
        "meta_mean_anomaly": 46.4907,
        "meta_ephemeris_type": 0,
        "meta_classification_type": "U",
        "meta_norad_cat_id": 40695,
        "meta_element_set_no": 999,
        "meta_rev_at_epoch": 31972,
        "meta_bstar": 0.0001467559,
        "meta_mean_motion_dot": 8.87e-06,
        "meta_mean_motion_ddot": 0,
        "tle_line1": "1 40695U 99025EXB 25354.06890765  .00000887  00000+0  14676-3 0  9998",
        "tle_line2": "2 40695  99.4265 113.1701 0280485 311.2419  46.4907 14.50978361319729"
      },
      "geometry": {
        "type": "Point",
        "coordinates": [
          115.99117225114419,
          -9.006105178264756
        ]
      }
    },
    {
      "type": "Feature",
      "properties": {
        "norad_id": 40696,
        "name": "FENGYUN 1C DEB",
        "group": "fengyun-1c-debris",
        "lat": 13.93661612368206,
        "lon": -20.469833642818557,
        "alt_km": 861.5006738566808,
        "timestamp": "2025-12-21T05:44:51.876253+00:00",
        "meta_object_name": "FENGYUN 1C DEB",
        "meta_object_id": "1999-025EXC",
        "meta_epoch": "2025-12-17T05:24:20.221920",
        "meta_mean_motion": 13.96744083,
        "meta_eccentricity": 0.00795529,
        "meta_inclination": 98.9563,
        "meta_ra_of_asc_node": 337.8647,
        "meta_arg_of_pericenter": 345.1128,
        "meta_mean_anomaly": 14.7694,
        "meta_ephemeris_type": 0,
        "meta_classification_type": "U",
        "meta_norad_cat_id": 40696,
        "meta_element_set_no": 999,
        "meta_rev_at_epoch": 55742,
        "meta_bstar": 8.1397831e-05,
        "meta_mean_motion_dot": 7.3e-07,
        "meta_mean_motion_ddot": 0,
        "tle_line1": "1 40696U 99025EXC 25351.22523405  .00000073  00000+0  81398-4 0  9991",
        "tle_line2": "2 40696  98.9563 337.8647 0079552 345.1128  14.7694 13.96744083557426"
      },
      "geometry": {
        "type": "Point",
        "coordinates": [
          -20.469833642818557,
          13.93661612368206
        ]
      }
    },
    {
      "type": "Feature",
      "properties": {
        "norad_id": 41003,
        "name": "FENGYUN 1C DEB",
        "group": "fengyun-1c-debris",
        "lat": 77.80964968519028,
        "lon": -131.72966967537153,
        "alt_km": 692.0246264849757,
        "timestamp": "2025-12-21T05:44:51.876263+00:00",
        "meta_object_name": "FENGYUN 1C DEB",
        "meta_object_id": "1999-025EXH",
        "meta_epoch": "2025-12-18T12:10:10.012512",
        "meta_mean_motion": 14.73078069,
        "meta_eccentricity": 0.00691513,
        "meta_inclination": 98.9664,
        "meta_ra_of_asc_node": 272.2138,
        "meta_arg_of_pericenter": 274.1099,
        "meta_mean_anomaly": 85.2204,
        "meta_ephemeris_type": 0,
        "meta_classification_type": "U",
        "meta_norad_cat_id": 41003,
        "meta_element_set_no": 999,
        "meta_rev_at_epoch": 52505,
        "meta_bstar": 0.0031269645,
        "meta_mean_motion_dot": 0.00020893,
        "meta_mean_motion_ddot": 0,
        "tle_line1": "1 41003U 99025EXH 25352.50706033  .00020893  00000+0  31270-2 0  9990",
        "tle_line2": "2 41003  98.9664 272.2138 0069151 274.1099  85.2204 14.73078069525054"
      },
      "geometry": {
        "type": "Point",
        "coordinates": [
          -131.72966967537153,
          77.80964968519028
        ]
      }
    },
    {
      "type": "Feature",
      "properties": {
        "norad_id": 41006,
        "name": "FENGYUN 1C DEB",
        "group": "fengyun-1c-debris",
        "lat": 15.81773730468021,
        "lon": 52.28019242327268,
        "alt_km": 1084.219342049143,
        "timestamp": "2025-12-21T05:44:51.876273+00:00",
        "meta_object_name": "FENGYUN 1C DEB",
        "meta_object_id": "1999-025EXL",
        "meta_epoch": "2025-12-19T21:45:46.059840",
        "meta_mean_motion": 13.85407302,
        "meta_eccentricity": 0.0190575,
        "meta_inclination": 102.3676,
        "meta_ra_of_asc_node": 226.9637,
        "meta_arg_of_pericenter": 351.9089,
        "meta_mean_anomaly": 7.8995,
        "meta_ephemeris_type": 0,
        "meta_classification_type": "U",
        "meta_norad_cat_id": 41006,
        "meta_element_set_no": 999,
        "meta_rev_at_epoch": 57588,
        "meta_bstar": 0.0020631,
        "meta_mean_motion_dot": 2.639e-05,
        "meta_mean_motion_ddot": 0,
        "tle_line1": "1 41006U 99025EXL 25353.90678310  .00002639  00000+0  20631-2 0  9991",
        "tle_line2": "2 41006 102.3676 226.9637 0190575 351.9089   7.8995 13.85407302575889"
      },
      "geometry": {
        "type": "Point",
        "coordinates": [
          52.28019242327268,
          15.81773730468021
        ]
      }
    }
  ]
}